ONEWEB-0319             
1 49105U 21075AG  25359.65925516  .00000449  00000+0  11226-2 0  9997
2 49105  87.9098  40.3737 0001887 110.3186 249.8148 13.17643993210757
ONEWEB-0323             
1 49106U 21075AH  25359.52500676  .00000465  00000+0  12576-2 0  9997
2 49106  87.8929  25.1378 0002027 113.2695 246.8647 13.12442921211773
ONEWEB-0329             
1 49107U 21075AJ  25359.66770660 -.00000014  00000+0 -69075-4 0  9995
2 49107  87.9094  40.3732 0001755 102.4045 257.7283 13.17649169210737
ONEWEB-0330             
1 49108U 21075AK  25359.66852876  .00000016  00000+0  73003-5 0  9993
2 49108  87.9097  40.3791 0001583 101.4800 258.6510 13.17647440210770
ONEWEB-0292             
1 49186U 21083A   25359.40445067 -.00000226  00000+0 -65452-3 0  9992
2 49186  87.8968 354.7967 0001853  93.5152 266.6189 13.13468230208110
ONEWEB-0303             
1 49187U 21083B   25359.47096916  .00000044  00000+0  79322-4 0  9993
2 49187  87.9174   9.9540 0001832  96.5703 263.5638 13.18686734207085
ONEWEB-0306             
1 49188U 21083C   25359.53694601  .00000000  00000+0 -32254-4 0  9992
2 49188  87.9176   9.9252 0001694  84.5159 275.6167 13.18686611207137
ONEWEB-0307             
1 49189U 21083D   25359.47471316 -.00000194  00000+0 -56652-3 0  9994
2 49189  87.8966 354.7739 0001777  88.5057 271.6276 13.13470531208122
